ONEWEB-0144             
1 47290U 20100AJ  24180.90767563 -.00000397  00000+0 -11389-2 0  9997
2 47290  87.8946 133.6736 0001760  75.2188 284.9135 13.12443049170359
ONEWEB-0145             
1 47291U 20100AK  24180.95471269  .00000106  00000+0  25935-3 0  9997
2 47291  87.8945 133.6884 0001970  79.6984 280.4366 13.12440467170558
ONEWEB-0146             
1 47292U 20100AL  24180.95147280  .00000172  00000+0  44334-3 0  9998
2 47292  87.8948 133.6728 0002469  86.5615 273.5796 13.12442199170465
ONEWEB-0147             
1 47293U 20100AM  24180.91739742  .00000070  00000+0  15896-3 0  9993
2 47293  87.8943 133.6728 0002119  72.1058 288.0301 13.12445336170352
ONEWEB-0115             
1 48042U 21025A   24180.82068148 -.00000234  00000+0 -67560-3 0  9997
2 48042  87.8927 103.2225 0002184  79.0853 281.0522 13.13472071159298
ONEWEB-0152             
1 48043U 21025B   24180.83338940  .00000039  00000+0  70863-4 0  9991
2 48043  87.8930 103.2181 0002101  78.0128 282.1236 13.13471635159252
ONEWEB-0153             
1 48044U 21025C   24180.81115366 -.00000395  00000+0 -11156-2 0  9990
2 48044  87.8934 103.2103 0001916  76.9339 283.2003 13.13471733159247
ONEWEB-0154             
1 48045U 21025D   24180.80797980 -.00000252  00000+0 -72631-3 0  9996
2 48045  87.8931 103.2224 0002016  75.8303 284.3050 13.13471730159207
